OBJECT_NAME,OBJECT_ID,EPOCH,MEAN_MOTION,ECCENTRICITY,INCLINATION,RA_OF_ASC_NODE,ARG_OF_PERICENTER,MEAN_ANOMALY,EPHEMERIS_TYPE,CLASSIFICATION_TYPE,NORAD_CAT_ID,ELEMENT_SET_NO,REV_AT_EPOCH,BSTAR,MEAN_MOTION_DOT,MEAN_MOTION_DDOT
ONEWEB-0412,2021-132W,2026-05-16T02:02:22.217568,13.18686894,.00020791,87.9172,341.8448,81.1890,278.9478,0,U,50489,999,21742,.48670547E-4,.32E-6,0
ONEWEB-0413,2021-132X,2026-05-16T02:09:39.078432,13.18686483,.00019572,87.9166,341.8457,79.3235,280.8118,0,U,50490,999,21736,.14709424E-3,.71E-6,0
ONEWEB-0414,2021-132Y,2026-05-16T01:47:47.134176,13.18686957,.00020567,87.9174,341.8268,86.1661,273.9707,0,U,50491,999,21739,.13784922E-3,.67E-6,0
ONEWEB-0417,2021-132Z,2026-05-16T01:59:56.604192,13.18687417,.0001929,87.9169,341.8475,94.8830,265.2522,0,U,50492,999,21737,.13407121E-4,.18E-6,0
ONEWEB-0418,2021-132AA,2026-05-16T02:14:17.035008,13.18685109,.00019268,87.9177,341.8425,96.4144,263.7207,0,U,50493,999,21743,.46093886E-4,.31E-6,0
ONEWEB-0419,2021-132AB,2026-05-16T02:40:20.134560,13.18664454,.00017553,87.9177,341.8386,94.6164,265.5169,0,U,50494,999,21735,.17247971E-3,.81E-6,0
ONEWEB-0420,2021-132AC,2026-05-16T01:50:12.536736,13.18687298,.00017656,87.9165,341.8510,81.3634,278.7698,0,U,50495,999,21734,-.24349236E-4,.3E-7,0
ONEWEB-0421,2021-132AD,2026-05-16T01:40:29.796384,13.18684884,.00022577,87.9170,341.8488,86.4917,273.6473,0,U,50496,999,21738,.19792827E-3,.91E-6,0
ONEWEB-0424,2021-132AE,2026-05-16T06:12:28.041696,13.18687249,.00015745,87.9175,341.8082,94.8510,265.2802,0,U,50497,999,21743,-.11060448E-3,-.31E-6,0
ONEWEB-0426,2021-132AF,2026-05-16T07:02:15.314784,13.18715980,.00021267,87.9178,341.7883,123.2745,236.8591,0,U,50498,999,21738,-.15289392E-1,-.6014E-4,0
ONEWEB-0427,2021-132AG,2026-05-16T04:20:45.555648,13.18686159,.00019865,87.9177,341.8031,93.0030,267.1329,0,U,50499,999,21739,.14701567E-3,.71E-6,0
ONEWEB-0429,2021-132AH,2026-05-16T02:12:04.865472,13.18688292,.00017612,87.9171,341.8475,80.3233,279.8098,0,U,50500,999,21735,.33024178E-4,.26E-6,0
ONEWEB-0430,2021-132AJ,2026-05-16T01:55:04.531584,13.18685378,.00015713,87.9172,341.8479,83.0776,277.0535,0,U,50501,999,21739,.25010999E-4,.23E-6,0
ONEWEB-0432,2021-132AK,2026-05-16T06:21:17.187264,13.18712909,.00013612,87.9178,341.7829,102.1850,257.9435,0,U,50502,999,21737,.10401155E-3,.54E-6,0
ONEWEB-0440,2021-132AL,2026-05-16T02:24:13.905216,13.18687546,.00020591,87.9178,341.8379,79.3758,280.7606,0,U,50503,999,21734,-.76855866E-4,-.17E-6,0
ONEWEB-0450,2021-132AM,2026-05-16T02:14:43.036224,13.18686526,.00017107,87.9169,341.8475,79.3435,280.7890,0,U,50504,999,21737,-.8542031E-4,-.21E-6,0
TIANHUI 4A,2021-134A,2026-05-16T07:41:59.698176,15.46048921,.00079286,88.9700,327.2676,173.7900,186.3459,0,U,50572,999,24494,.97200082E-4,.4784E-4,0
TIANHUI 4B,2021-134B,2026-05-16T07:42:25.283808,15.46045351,.00072927,88.9697,327.2497,177.7633,182.3661,0,U,50573,999,24491,.97897773E-4,.4817E-4,0
TJS-9,2021-135A,2026-05-16T06:30:23.001120,1.00272221,.00040724,0.0493,74.6040,15.1358,19.1021,0,U,50574,999,1611,0,-.287E-5,0
STARLINK-3323,2022-001B,2026-05-15T15:47:00.225600,15.08834804,.00008439,53.2163,218.4912,85.0271,275.0817,0,U,50804,999,24065,.42807928E-4,.394E-5,0
STARLINK-3333,2022-001C,2026-05-15T15:41:42.150912,15.08836704,.00011163,53.2169,218.5070,85.2279,274.8841,0,U,50805,999,24065,.15186537E-4,-.46E-6,0
STARLINK-3335,2022-001D,2026-05-15T15:36:23.975136,15.08838760,.00012816,53.2174,218.5250,87.8204,272.2934,0,U,50806,999,24065,.16048443E-4,-.32E-6,0
STARLINK-3355,2022-001F,2026-05-15T12:15:01.897632,15.08836118,.00010908,53.2168,219.1500,86.6030,273.5087,0,U,50808,999,24063,-.301491E-6,-.293E-5,0
STARLINK-3232,2022-001G,2026-05-15T12:20:19.986144,15.08843928,.00010974,53.2156,219.1333,85.1504,274.9613,0,U,50809,999,24063,-.56336624E-4,-.1184E-4,0
STARLINK-3338,2022-001K,2026-05-16T04:51:18.453888,15.08832048,.00008949,53.2169,216.1489,81.2549,278.8545,0,U,50812,999,24073,.41490468E-4,.373E-5,0
STARLINK-3349,2022-001L,2026-05-16T06:00:32.691168,15.42710725,.00026999,53.2019,165.5469,30.5833,329.5331,0,U,50813,999,24146,.85740005E-3,.3778E-3,0
STARLINK-3324,2022-001M,2026-05-15T17:47:33.475488,15.08835907,.0001153,53.2163,228.1146,90.2921,269.8203,0,U,50814,999,24053,.5919002E-5,-.194E-5,0
STARLINK-3234,2022-001N,2026-05-15T11:41:56.995872,15.08810617,.00011327,53.2168,229.2544,90.2028,269.9094,0,U,50815,999,24049,-.17761149E-3,-.3111E-4,0
STARLINK-3342,2022-001P,2026-05-15T15:21:56.291040,15.16185784,.00022159,53.2111,224.1889,26.6671,333.4438,0,U,50816,999,24057,.51786114E-3,.9822E-4,0
STARLINK-3341,2022-001Q,2026-05-16T06:41:14.644608,15.08840602,.00011134,53.2160,225.7008,74.2974,285.8141,0,U,50817,999,24061,.24094032E-4,.96E-6,0
