ONEWEB-0412             
1 50489U 21132W   26136.08497937  .00000032  00000+0  48671-4 0  9994
2 50489  87.9172 341.8448 0002079  81.1890 278.9478 13.18686894217424
ONEWEB-0413             
1 50490U 21132X   26136.09003563  .00000071  00000+0  14709-3 0  9992
2 50490  87.9166 341.8457 0001957  79.3235 280.8118 13.18686483217365
ONEWEB-0414             
1 50491U 21132Y   26136.07485109  .00000067  00000+0  13785-3 0  9999
2 50491  87.9174 341.8268 0002056  86.1661 273.9707 13.18686957217391
ONEWEB-0417             
1 50492U 21132Z   26136.08329403  .00000018  00000+0  13407-4 0  9993
2 50492  87.9169 341.8475 0001929  94.8830 265.2522 13.18687417217377
ONEWEB-0418             
1 50493U 21132AA  26136.09325272  .00000031  00000+0  46094-4 0  9998
2 50493  87.9177 341.8425 0001926  96.4144 263.7207 13.18685109217431
ONEWEB-0419             
1 50494U 21132AB  26136.11134415  .00000081  00000+0  17248-3 0  9992
2 50494  87.9177 341.8386 0001755  94.6164 265.5169 13.18664454217358
ONEWEB-0420             
1 50495U 21132AC  26136.07653399  .00000003  00000+0 -24349-4 0  9991
2 50495  87.9165 341.8510 0001765  81.3634 278.7698 13.18687298217344
ONEWEB-0421             
1 50496U 21132AD  26136.06978931  .00000091  00000+0  19793-3 0  9995
2 50496  87.9170 341.8488 0002257  86.4917 273.6473 13.18684884217389
ONEWEB-0424             
1 50497U 21132AE  26136.25865789 -.00000031  00000+0 -11060-3 0  9998
2 50497  87.9175 341.8082 0001574  94.8510 265.2802 13.18687249217435
ONEWEB-0426             
1 50498U 21132AF  26136.29323281 -.00006014  00000+0 -15289-1 0  9991
2 50498  87.9178 341.7883 0002126 123.2745 236.8591 13.18715980217385
ONEWEB-0427             
1 50499U 21132AG  26136.18108282  .00000071  00000+0  14702-3 0  9998
2 50499  87.9177 341.8031 0001986  93.0030 267.1329 13.18686159217397
ONEWEB-0429             
1 50500U 21132AH  26136.09172298  .00000026  00000+0  33024-4 0  9998
2 50500  87.9171 341.8475 0001761  80.3233 279.8098 13.18688292217350
ONEWEB-0430             
1 50501U 21132AJ  26136.07991356  .00000023  00000+0  25011-4 0  9995
2 50501  87.9172 341.8479 0001571  83.0776 277.0535 13.18685378217399
ONEWEB-0432             
1 50502U 21132AK  26136.26478226  .00000054  00000+0  10401-3 0  9993
2 50502  87.9178 341.7829 0001361 102.1850 257.9435 13.18712909217372
ONEWEB-0440             
1 50503U 21132AL  26136.10016094 -.00000017  00000+0 -76856-4 0  9996
2 50503  87.9178 341.8379 0002059  79.3758 280.7606 13.18687546217340
ONEWEB-0450             
1 50504U 21132AM  26136.09355366 -.00000021  00000+0 -85420-4 0  9995
2 50504  87.9169 341.8475 0001710  79.3435 280.7890 13.18686526217378
TIANHUI 4A              
1 50572U 21134A   26136.32082984  .00004784  00000+0  97200-4 0  9998
2 50572  88.9700 327.2676 0007928 173.7900 186.3459 15.46048921244948
TIANHUI 4B              
1 50573U 21134B   26136.32112597  .00004817  00000+0  97898-4 0  9993
2 50573  88.9697 327.2497 0007292 177.7633 182.3661 15.46045351244918
TJS-9                   
1 50574U 21135A   26136.27109955 -.00000287  00000+0  00000+0 0  9995
2 50574   0.0493  74.6040 0004072  15.1358  19.1021  1.00272221 16116
STARLINK-3323           
1 50804U 22001B   26135.65764150  .00000394  00000+0  42808-4 0  9994
2 50804  53.2163 218.4912 0000843  85.0271 275.0817 15.08834804240652
STARLINK-3333           
1 50805U 22001C   26135.65396008 -.00000046  00000+0  15187-4 0  9993
2 50805  53.2169 218.5070 0001116  85.2279 274.8841 15.08836704240654
STARLINK-3335           
1 50806U 22001D   26135.65027749 -.00000032  00000+0  16048-4 0  9999
2 50806  53.2174 218.5250 0001281  87.8204 272.2934 15.08838760240659
STARLINK-3355           
1 50808U 22001F   26135.51043863 -.00000293  00000+0 -30149-6 0  9991
2 50808  53.2168 219.1500 0001090  86.6030 273.5087 15.08836118240637
STARLINK-3232           
1 50809U 22001G   26135.51412021 -.00001184  00000+0 -56337-4 0  9993
2 50809  53.2156 219.1333 0001097  85.1504 274.9613 15.08843928240633
STARLINK-3338           
1 50812U 22001K   26136.20229692  .00000373  00000+0  41490-4 0  9995
2 50812  53.2169 216.1489 0000894  81.2549 278.8545 15.08832048240739
STARLINK-3349           
1 50813U 22001L   26136.25037837  .00037780  00000+0  85740-3 0  9996
2 50813  53.2019 165.5469 0002699  30.5833 329.5331 15.42710725241460
STARLINK-3324           
1 50814U 22001M   26135.74135967 -.00000194  00000+0  59190-5 0  9995
2 50814  53.2163 228.1146 0001153  90.2921 269.8203 15.08835907240537
STARLINK-3234           
1 50815U 22001N   26135.48746523 -.00003111  00000+0 -17761-3 0  9992
2 50815  53.2168 229.2544 0001132  90.2028 269.9094 15.08810617240497
STARLINK-3342           
1 50816U 22001P   26135.64023485  .00009822  00000+0  51786-3 0  9994
2 50816  53.2111 224.1889 0002215  26.6671 333.4438 15.16185784240579
STARLINK-3341           
1 50817U 22001Q   26136.27864172  .00000096  00000+0  24094-4 0  9998
2 50817  53.2160 225.7008 0001113  74.2974 285.8141 15.08840602240619
